ONEWEB-0171             
1 48070U 21025AE  24177.31175042  .00000262  00000+0  68118-3 0  9999
2 48070  87.8934 103.9333 0002029  75.3276 284.8078 13.13472265158853
ONEWEB-0172             
1 48071U 21025AF  24176.83405533 -.00000200  00000+0 -58151-3 0  9997
2 48071  87.8933 103.9947 0002029  72.4090 287.7261 13.13471698159683
ONEWEB-0174             
1 48072U 21025AG  24177.19748748 -.00001174  00000+0 -32487-2 0  9990
2 48072  87.8934 103.9366 0001914  84.5448 275.5900 13.13476447159056
ONEWEB-0175             
1 48073U 21025AH  24177.30222630 -.00000265  00000+0 -76054-3 0  9990
2 48073  87.8927 103.9041 0002341  72.9139 287.2246 13.13469814158728
ONEWEB-0177             
1 48074U 21025AJ  24177.16257802  .00000384  00000+0  10177-2 0  9997
2 48074  87.8928 103.9399 0001608  71.2376 288.8927 13.13472419158892
ONEWEB-0178             
1 48075U 21025AK  24177.18016417 -.00000907  00000+0 -25191-2 0  9990
2 48075  87.8932 103.9565 0001880  86.1847 273.9497 13.13476924158941
ONEWEB-0108             
1 48076U 21025AL  24176.83563512 -.00000196  00000+0 -57093-3 0  9992
2 48076  87.8927 104.0022 0002064  85.8294 274.3071 13.13468262158829
ONEWEB-0169             
1 48077U 21025AM  24177.17210174  .00001976  00000+0  53749-2 0  9992
2 48077  87.8931 103.9454 0002002  86.0033 274.1325 13.13462240158761
